STARLINK-35579          
1 66562U 25268F   26067.14576986  .00049041  00000+0  17784-2 0  9991
2 66562  43.0021 355.7805 0002172 277.4070  82.6535 15.27606511 17729
KUIPER-00204            
1 67145U 25301N   26068.39760395  .00020516  00000+0  79568-3 0  9999
2 67145  51.8870  71.6415 0003071 354.8934   5.2016 15.26088400 13737
